location_id,address_line_1,address_line_2,district,city,postal_code,country,phone
1,test_address_1_1,test_address_2_1,test_district_1,test_city_1,AB1234,country_1,044-123456789
2,test_address_1_2,test_address_2_2,test_district_2,test_city_2,AB1235,country_2,044-123456790
3,test_address_1_3,test_address_2_3,test_district_3,test_city_3,AB1236,country_3,044-123456791
4,test_address_1_4,test_address_2_4,test_district_4,test_city_4,AB1237,country_4,044-123456792
5,test_address_1_5,test_address_2_5,test_district_5,test_city_5,AB1238,country_5,044-123456793
6,test_address_1_6,test_address_2_6,test_district_6,test_city_6,AB1239,country_6,044-123456794
7,test_address_1_7,test_address_2_7,test_district_7,test_city_7,AB1240,country_7,044-123456795
8,test_address_1_8,test_address_2_8,test_district_8,test_city_8,AB1241,country_8,044-123456796
9,test_address_1_9,test_address_2_9,test_district_9,test_city_9,AB1242,country_9,044-123456797
10,test_address_1_10,test_address_2_10,test_district_10,test_city_10,AB1243,country_10,044-123456798
11,test_address_1_11,test_address_2_11,test_district_11,test_city_11,AB1244,country_11,044-123456799
12,test_address_1_12,test_address_2_12,test_district_12,test_city_12,AB1245,country_12,044-123456800
13,test_address_1_13,test_address_2_13,test_district_13,test_city_13,AB1246,country_13,044-123456801
14,test_address_1_14,test_address_2_14,test_district_14,test_city_14,AB1247,country_14,044-123456802
15,test_address_1_15,test_address_2_15,test_district_15,test_city_15,AB1248,country_15,044-123456803
16,test_address_1_16,test_address_2_16,test_district_16,test_city_16,AB1249,country_16,044-123456804
17,test_address_1_17,test_address_2_17,test_district_17,test_city_17,AB1250,country_17,044-123456805
18,test_address_1_18,test_address_2_18,test_district_18,test_city_18,AB1251,country_18,044-123456806
19,test_address_1_19,test_address_2_19,test_district_19,test_city_19,AB1252,country_19,044-123456807
20,test_address_1_20,test_address_2_20,test_district_20,test_city_20,AB1253,country_20,044-123456808
21,test_address_1_21,test_address_2_21,test_district_21,test_city_21,AB1254,country_21,044-123456809
22,test_address_1_22,test_address_2_22,test_district_22,test_city_22,AB1255,country_22,044-123456810
23,test_address_1_23,test_address_2_23,test_district_23,test_city_23,AB1256,country_23,044-123456811